BEIJING 1               
1 28890U 05043A   22040.50836896  .00000173  00000+0  44338-4 0  9998
2 28890  98.0992 165.4206 0014550 210.5480 149.4874 14.61382426868449
HJ-1A                   
1 33320U 08041A   22040.44817211  .00000308  00000+0  49689-4 0  9990
2 33320  97.6944  79.4040 0019661 290.0208  69.8887 14.77731996723484
HJ-1B                   
1 33321U 08041B   22040.44800358  .00000739  00000+0  10957-3 0  9998
2 33321  97.7132  82.7118 0033563 308.2092  51.6099 14.77541964723486
YAOGAN 4                
1 33446U 08061A   22040.43130720  .00000417  00000+0  65853-4 0  9995
2 33446  97.8045 344.5724 0016048 183.9621 176.1466 14.77222511710699
DEIMOS-1                
1 35681U 09041A   22040.53409589  .00000280  00000+0  51958-4 0  9999
2 35681  97.7279 258.0609 0000261 359.6618   0.4598 14.71964953672957
UK-DMC 2                
1 35683U 09041C   22040.43392271  .00000308  00000+0  57308-4 0  9995
2 35683  97.6864 220.5248 0001312  78.9591 281.1774 14.71284111672685
RISAT 1                 
1 38248U 12017A   22040.49847046  .00002804  00000+0  17137-3 0  9991
2 38248  97.5581  53.3433 0003840   4.0759 356.0501 15.11079189539518
DMC3-FM1                
1 40715U 15032A   22040.45578676  .00000388  00000+0  55570-4 0  9998
2 40715  97.8653 289.6584 0005101 207.5186 152.5749 14.81926303354333
DMC3-FM2                
1 40716U 15032B   22040.47788312  .00000336  00000+0  49054-4 0  9994
2 40716  97.8689 290.2594 0007268 211.2244 148.8524 14.81900167354345
DMC3-FM3                
1 40717U 15032C   22040.43300238  .00000371  00000+0  53378-4 0  9991
2 40717  97.8720 291.0763 0008541 210.1550 149.9145 14.81948052354337
